[ {"name": "STARLINK-35543", "line1": "1 66201U 25243AA  26125.96388111  .00025909  00000+0  88409-3 0  9990", "line2": "2 66201  53.1603 339.1482 0001060  65.5782 294.5329 15.30191464 29420"}, {"name": "STARLINK-35534", "line1": "1 66202U 25243AB  26125.96704607  .00024514  00000+0  83739-3 0  9995", "line2": "2 66202  53.1605 339.1687 0000742  91.1078 269.0008 15.30187084 29423"}, {"name": "STARLINK-35548", "line1": "1 66203U 25243AC  26125.97021290  .00005649  00000+0  20275-3 0  9991", "line2": "2 66203  53.1615 339.1887 0001089  76.1481 283.9641 15.30190379 29422"}, {"name": "STARLINK-35490", "line1": "1 66204U 25243AD  26125.78060072  .00015591  00000+0  53729-3 0  9999", "line2": "2 66204  53.1621 340.1396 0002019  89.5427 270.5806 15.30208170 29399"}, {"name": "STARLINK-35748", "line1": "1 66206U 25244A   26126.26088218  .00020895  00000+0  71603-3 0  9992", "line2": "2 66206  53.1616 322.5197 0001441  87.9105 272.2061 15.30181882 30474"}, {"name": "STARLINK-35747", "line1": "1 66207U 25244B   26125.77317446  .00015760  00000+0  54330-3 0  9999", "line2": "2 66207  53.1590 325.1149 0001100  92.4123 267.7004 15.30188122 30396"}, {"name": "STARLINK-35751", "line1": "1 66208U 25244C   26125.78677555  .00034601  00000+0  11744-2 0  9997", "line2": "2 66208  53.1592 324.5381 0001239 141.4062 218.7027 15.30214255 30400"}, {"name": "STARLINK-35750", "line1": "1 66209U 25244D   26125.77729016  .00020552  00000+0  70409-3 0  9991", "line2": "2 66209  53.1592 324.4839 0000847  97.7677 262.3420 15.30201321 30409"}, {"name": "STARLINK-35740", "line1": "1 66210U 25244E   26125.97640012  .00023922  00000+0  81743-3 0  9990", "line2": "2 66210  53.1588 323.5948 0001613  55.3910 304.7243 15.30190396 30435"}, {"name": "STARLINK-35723", "line1": "1 66211U 25244F   26125.97007460  .00020087  00000+0  68813-3 0  9997", "line2": "2 66211  53.1588 323.5499 0001034  77.2824 282.8293 15.30217434 30424"}, {"name": "STARLINK-35710", "line1": "1 66212U 25244G   26125.95751941  .00029554  00000+0  10062-2 0  9996", "line2": "2 66212  53.1601 324.1819 0001096  73.2657 286.8464 15.30193515 30429"}, {"name": "STARLINK-34204", "line1": "1 66213U 25244H   26125.96690207  .00021331  00000+0  73032-3 0  9997", "line2": "2 66213  53.1581 323.5313 0000789  76.8437 283.2652 15.30197602 30434"}, {"name": "STARLINK-35714", "line1": "1 66214U 25244J   26125.77001006  .00016193  00000+0  55726-3 0  9990", "line2": "2 66214  53.1571 325.1308 0001555 134.7031 225.4097 15.30223423 30399"}, {"name": "STARLINK-35712", "line1": "1 66215U 25244K   26125.78256762  .00023854  00000+0  81463-3 0  9992", "line2": "2 66215  53.1593 324.5095 0001086  51.5350 308.5749 15.30211737 30403"}, {"name": "STARLINK-35709", "line1": "1 66216U 25244L   26126.27354346  .00012905  00000+0  44716-3 0  9990", "line2": "2 66216  53.1615 322.5982 0001396  90.8764 269.2396 15.30194384 30477"}, {"name": "STARLINK-35700", "line1": "1 66217U 25244M   26126.26721111  .00004514  00000+0  16446-3 0  9994", "line2": "2 66217  53.1622 322.5558 0001133 106.3985 253.7141 15.30193070 30468"}, {"name": "STARLINK-35722", "line1": "1 66218U 25244N   26125.98695358  .00014627  00000+0  50509-3 0  9990", "line2": "2 66218  53.1577 323.6556 0001008  73.8629 286.2483 15.30193518 30436"}, {"name": "STARLINK-35737", "line1": "1 66219U 25244P   26125.98484333  .00011874  00000+0  41235-3 0  9997", "line2": "2 66219  53.1589 323.6383 0001274  64.7530 295.3603 15.30201548 30431"}, {"name": "STARLINK-35677", "line1": "1 66220U 25244Q   26125.97534584  .00020953  00000+0  71767-3 0  9993", "line2": "2 66220  53.1585 323.5780 0001064  85.4270 274.6853 15.30196146 30431"}, {"name": "STARLINK-35704", "line1": "1 66221U 25244R   26126.26510233  .00015267  00000+0  52669-3 0  9994", "line2": "2 66221  53.1614 322.5428 0001492  88.9857 271.1315 15.30189629 30474"}, {"name": "STARLINK-35666", "line1": "1 66222U 25244S   26126.26827444  .00018359  00000+0  62995-3 0  9998", "line2": "2 66222  53.1622 322.5627 0001155  91.2890 268.8243 15.30226025 30470"}, {"name": "STARLINK-35664", "line1": "1 66223U 25244T   26126.27459784  .00018935  00000+0  64983-3 0  9997", "line2": "2 66223  53.1616 322.6015 0001403  87.0600 273.0562 15.30197656 30473"}, {"name": "STARLINK-35733", "line1": "1 66224U 25244U   26125.96174382  .00045992  00000+0  15526-2 0  9992", "line2": "2 66224  53.1605 324.2035 0000954  58.4861 301.6233 15.30257377 30428"}, {"name": "STARLINK-35734", "line1": "1 66225U 25244V   26126.27143155  .00014247  00000+0  49237-3 0  9998", "line2": "2 66225  53.1620 322.5773 0001296 112.6547 247.4591 15.30189207 30475"}, {"name": "STARLINK-34466", "line1": "1 66226U 25244W   26126.25560184  .00011715  00000+0  40712-3 0  9998", "line2": "2 66226  53.1610 322.4807 0001455  94.2793 265.8374 15.30192353 30476"}, {"name": "STARLINK-34882", "line1": "1 66227U 25244X   26126.25243502  .00018220  00000+0  62606-3 0  9995", "line2": "2 66227  53.1599 322.4602 0001489  85.5661 274.5509 15.30186076 30472"}, {"name": "STARLINK-35731", "line1": "1 66228U 25244Y   26126.24927142  .00014990  00000+0  51743-3 0  9994", "line2": "2 66228  53.1619 322.4389 0001592  81.4432 278.6749 15.30186503 30470"}, {"name": "STARLINK-35758", "line1": "1 66229U 25244Z   26125.98590135  .00024436  00000+0  83459-3 0  9998", "line2": "2 66229  53.1587 323.6410 0001676  40.4657 319.6469 15.30194204 30438"}, {"name": "STARLINK-35736", "line1": "1 66230U 25244AA  26126.26405312  .00017643  00000+0  60699-3 0  9997", "line2": "2 66230  53.1608 322.5298 0001136  85.1979 274.9151 15.30167280 30479"}, {"name": "STARLINK-35735", "line1": "1 66231U 25244AB  26125.78362130  .00013328  00000+0  46139-3 0  9993", "line2": "2 66231  53.1589 324.5134 0000858  81.5813 278.5285 15.30194511 30404"}, {"name": "STARLINK-35753", "line1": "1 66232U 25244AC  26125.76790542  .00008670  00000+0  30450-3 0  9997", "line2": "2 66232  53.1589 325.1203 0001110  42.6038 317.5048 15.30201153 30398"}, {"name": "STARLINK-35626", "line1": "1 66233U 25244AD  26126.09131287  .00023528  00000+0  80393-3 0  9990", "line2": "2 66233  53.1603 323.5851 0001086  86.1742 273.9383 15.30201982 30447"}, {"name": "STARLINK-35537", "line1": "1 66234U 25245A   26125.73154542  .00019782  00000+0  64685-3 0  9994", "line2": "2 66234  53.1578  18.6791 0001434  96.6603 263.4562 15.31734633 29999"}, {"name": "STARLINK-35541", "line1": "1 66235U 25245B   26126.12990949  .00028573  00000+0  97277-3 0  9999", "line2": "2 66235  53.1587  16.8968 0000940 105.1023 255.0082 15.30211956 30004"}, {"name": "STARLINK-35454", "line1": "1 66236U 25245C   26126.09942042  .00024156  00000+0  82476-3 0  9995", "line2": "2 66236  53.1611  17.4167 0001429 124.4893 235.6243 15.30212033 29887"}, {"name": "STARLINK-35557", "line1": "1 66237U 25245D   26126.08439145  .00057363  00000+0  13201-2 0  9995", "line2": "2 66237  53.1613  16.6146 0002316 330.2666  29.8208 15.42105810 30051"}, {"name": "STARLINK-35556", "line1": "1 66238U 25245E   26126.25002315  .00017155  00000+0  51812-3 0  9996", "line2": "2 66238  53.1616  15.6776 0001528 121.9571 156.5760 15.34374562  5660"}, {"name": "STARLINK-35554", "line1": "1 66239U 25245F   26125.70013435  .00019536  00000+0  66963-3 0  9999", "line2": "2 66239  53.1614  19.1896 0001454 116.8412 243.2738 15.30218053 29827"}, {"name": "STARLINK-35546", "line1": "1 66240U 25245G   26125.67164146  .00023853  00000+0  81465-3 0  9994", "line2": "2 66240  53.1586  19.0132 0001024 103.6992 256.4123 15.30210364 29987"}, {"name": "STARLINK-35497", "line1": "1 66241U 25245H   26125.99399368  .00026267  00000+0  89634-3 0  9994", "line2": "2 66241  53.1569  17.4679 0001381 251.4945 108.5906 15.30182416 29985"}, {"name": "STARLINK-35480", "line1": "1 66242U 25245J   26126.17738340  .00017576  00000+0  60382-3 0  9995", "line2": "2 66242  53.1590  17.1909 0001684  37.6240 322.4878 15.30217982 30053"}, {"name": "STARLINK-35495", "line1": "1 66243U 25245K   26125.99083256 -.00009560  00000+0 -31132-3 0  9991", "line2": "2 66243  53.1577  17.4511 0000734  65.0941 295.0136 15.30174696 30022"}, {"name": "STARLINK-35517", "line1": "1 66244U 25245L   26125.91918491  .00019696  00000+0  67610-3 0  9991", "line2": "2 66244  53.1576  17.7113 0000640  35.8617 324.2427 15.30163945 29812"}, {"name": "STARLINK-35503", "line1": "1 66245U 25245M   26125.71701977  .00025045  00000+0  85435-3 0  9999", "line2": "2 66245  53.1601  19.2920 0000973  71.1183 288.9923 15.30219213 29935"}, {"name": "STARLINK-35434", "line1": "1 66246U 25245N   26125.69697017  .00019279  00000+0  66104-3 0  9990", "line2": "2 66246  53.1597  19.1665 0001709 104.6014 255.5177 15.30215087 29776"}, {"name": "STARLINK-35481", "line1": "1 66247U 25245P   26126.08568993  .00027472  00000+0  93658-3 0  9993", "line2": "2 66247  53.1635  17.3238 0001368 227.1471 132.9415 15.30187949 30045"}, {"name": "STARLINK-35416", "line1": "1 66248U 25245Q   26126.20698454  .00007480  00000+0  25267-3 0  9992", "line2": "2 66248  53.1593  16.6632 0001279  96.8346 263.2801 15.31685093 30009"}, {"name": "STARLINK-35304", "line1": "1 66249U 25245R   26126.06986233  .00025909  00000+0  88418-3 0  9995", "line2": "2 66249  53.1600  17.2248 0000856 229.1088 130.9839 15.30187639 29824"}, {"name": "STARLINK-35338", "line1": "1 66250U 25245S   26126.20231600  .00009687  00000+0  32373-3 0  9998", "line2": "2 66250  53.1591  16.6326 0001285  71.4025 288.7116 15.31677135 29962"}, {"name": "STARLINK-35485", "line1": "1 66251U 25245T   26126.19764322  .00015569  00000+0  51258-3 0  9998", "line2": "2 66251  53.1623  16.5983 0000468 253.6438 106.4512 15.31689413 29846"}, {"name": "STARLINK-35483", "line1": "1 66252U 25245U   26126.12357790  .00011908  00000+0  41396-3 0  9994", "line2": "2 66252  53.1580  16.8507 0000903  78.9050 281.2052 15.30167085 30002"}, {"name": "STARLINK-35486", "line1": "1 66253U 25245V   26126.25002315  .00006162  00000+0  21015-3 0  9991", "line2": "2 66253  53.1602  16.5625 0001393  74.0669 112.0129 15.31700285  5827"}]